ordinal{string},comment{string},originator{string},norad_cat_id{string},object_name{string},object_type{string},classification_type{string},intldes{string},epoch{timestamp},epoch_microseconds{integer},mean_motion{decimal},eccentricity{decimal},inclination{decimal},ra_of_asc_node{decimal},arg_of_pericenter{decimal},mean_anomaly{decimal},ephemeris_type{string},element_set_no{string},rev_at_epoch{integer},bstar{decimal},mean_motion_dot{decimal},mean_motion_ddot{string},file{string},tle_line0{string},tle_line1{string},tle_line2{string},object_id{string},object_number{string},semimajor_axis{decimal},period{decimal},apogee{decimal},perigee{decimal}
1,GENERATED VIA SPACETRACK.ORG API,JSPOC,12319,COSMOS 1249,PAYLOAD,U,81021A,2019-02-21T22:41:57Z,360192,13.8660806099999991,0.00379899999999999986,64.9624000000000024,262.321500000000015,43.6632000000000033,316.742399999999975,0,999,92432,6.01120000000000015e-06,-8.29999999999999994e-07,0,2414564,0 COSMOS 1249,1 12319U 81021A   19052.94580278 -.00000083 +00000-0 +60112-5 0  9995,2 12319 064.9624 262.3215 0037990 043.6632 316.7424 13.86608061924328,1981-021A,12319,7318.67799999999988,103.849999999999994,968.34699999999998,912.740000000000009
1,GENERATED VIA SPACETRACK.ORG API,JSPOC,20736,COSMOS 2091,PAYLOAD,U,90070B,2019-02-21T22:42:02Z,226240,12.6248781000000001,0.000361500000000000005,82.5746000000000038,234.012,55.6193999999999988,112.309100000000001,0,999,31510,-6.76519999999999953e-05,-2.00000000000000004e-08,0,2414564,0 COSMOS 2091,1 20736U 90070B   19052.94585910 -.00000002 +00000-0 -67652-4 0  9996,2 20736 082.5746 234.0120 0003615 055.6194 112.3091 12.62487810315105,1990-070B,20736,7790.82899999999972,114.060000000000002,1415.51099999999997,1409.87799999999993
1,GENERATED VIA SPACETRACK.ORG API,JSPOC,43707,BEIDOU 3M18,PAYLOAD,U,18093B,2019-02-21T22:42:17Z,886240,1.86231908999999995,0.000748500000000000033,54.9262000000000015,273.476099999999974,289.881899999999973,187.653300000000002,0,999,176,0,5.99999999999999946e-08,0,2414461,0 BEIDOU 3M18,1 43707U 18093B   19052.94604035  .00000006  00000-0  00000+0 0  9995,2 43707  54.9262 273.4761 0007485 289.8819 187.6533  1.86231909  1766,2018-093B,43707,27906.0970000000016,773.229000000000042,21548.8499999999985,21507.0750000000007
1,GENERATED VIA SPACETRACK.ORG API,JSPOC,4953,OPS 5268 (DMSP 5A F3),PAYLOAD,U,71012A,2019-02-21T22:42:23Z,881536,14.4033432399999999,0.00392279999999999972,98.6510999999999996,223.447599999999994,132.679200000000009,227.771199999999993,0,999,51395,1.66110000000000007e-05,8.00000000000000017e-08,0,2414564,0 OPS 5268 (DMSP 5A F3),1  4953U 71012A   19052.94610974 +.00000008 +00000-0 +16611-4 0  9996,2  4953 098.6511 223.4476 0039228 132.6792 227.7712 14.40334324513954,1971-012A,4953,7135.53099999999995,99.9759999999999991,785.386999999999944,729.403999999999996
1,GENERATED VIA SPACETRACK.ORG API,JSPOC,15619,COSMOS 1637,PAYLOAD,U,85023C,2019-02-21T22:42:36Z,431136,12.4720106899999994,0.00153790000000000003,74.0555999999999983,36.640900000000002,331.703399999999988,89.2545999999999964,0,999,54460,-0.000110860000000000006,-3.20000000000000007e-07,0,2414564,0 COSMOS 1637,1 15619U 85023C   19052.94625499 -.00000032 +00000-0 -11086-3 0  9991,2 15619 074.0556 036.6409 0015379 331.7034 089.2546 12.47201069544600,1985-023C,15619,7854.36099999999988,115.457999999999998,1488.30500000000006,1464.14599999999996
1,GENERATED VIA SPACETRACK.ORG API,JSPOC,13669,RADUGA 11,PAYLOAD,U,82113A,2019-02-21T22:42:46Z,6848,0.977075710000000042,0.00375900000000000019,14.1224000000000007,333.907300000000021,227.261400000000009,347.122700000000009,0,999,9541,0,-6.40000000000000013e-07,0,2414250,0 RADUGA 11,1 13669U 82113A   19052.94636582 -.00000064  00000-0  00000+0 0  9990,2 13669  14.1224 333.9073 0037590 227.2614 347.1227  0.97707571 95415,1982-113A,13669,42899.2490000000034,1473.78500000000008,36682.372000000003,36359.8559999999998
1,GENERATED VIA SPACETRACK.ORG API,JSPOC,8610,COSMOS 794,PAYLOAD,U,76008D,2019-02-21T22:43:04Z,799712,12.4811483600000006,0.00273550000000000008,74.0566000000000031,20.7576999999999998,306.658200000000022,108.869200000000006,0,999,96226,-6.13650000000000062e-05,-2.49999999999999989e-07,0,2414564,0 COSMOS 794,1  8610U 76008D   19052.94658333 -.00000025 +00000-0 -61365-4 0  9998,2  8610 074.0566 020.7577 0027355 306.6582 108.8692 12.48114836962262,1976-008D,8610,7850.52599999999984,115.373000000000005,1493.86699999999996,1450.91599999999994
1,GENERATED VIA SPACETRACK.ORG API,JSPOC,12138,COSMOS 1238,PAYLOAD,U,81003A,2019-02-21T22:43:24Z,714048,13.9522905599999998,0.0712974999999999998,82.9568000000000012,141.902199999999993,19.4201000000000015,343.27030000000002,0,999,89575,2.7140000000000001e-05,4.05000000000000019e-06,0,2414564,0 COSMOS 1238,1 12138U 81003A   19052.94681382 +.00000405 +00000-0 +27140-4 0  9992,2 12138 082.9568 141.9022 0712975 019.4201 343.2703 13.95229056895750,1981-003A,12138,7288.5,103.207999999999998,1430.01600000000008,390.713000000000022
1,GENERATED VIA SPACETRACK.ORG API,JSPOC,5213,COSMOS 414,PAYLOAD,U,71041D,2019-02-21T22:43:27Z,546240,12.5110322499999995,0.00423570000000000023,74.0126000000000062,226.449399999999997,141.736400000000003,11.8404000000000007,0,999,18293,-7.82589999999999973e-05,-2.80000000000000019e-07,0,2414564,0 COSMOS 414,1  5213U 71041D   19052.94684660 -.00000028 +00000-0 -78259-4 0  9991,2  5213 074.0126 226.4494 0042357 141.7364 011.8404 12.51103225182934,1971-041D,5213,7838.02000000000044,115.097999999999999,1493.08500000000004,1426.68599999999992
1,GENERATED VIA SPACETRACK.ORG API,JSPOC,18120,COSMOS 1859,PAYLOAD,U,87051H,2019-02-21T22:43:28Z,657344,12.5790634099999998,0.00563460000000000003,74.0045999999999964,30.0451000000000015,119.680899999999994,300.012499999999989,0,999,45497,-7.37310000000000027e-05,-2.89999999999999976e-07,0,2414564,0 COSMOS 1859,1 18120U 87051H   19052.94685946 -.00000029 +00000-0 -73731-4 0  9999,2 18120 074.0046 030.0451 0056346 119.6809 300.0125 12.57906341454974,1987-051H,18120,7809.73499999999967,114.474999999999994,1475.60400000000004,1387.59500000000003
1,GENERATED VIA SPACETRACK.ORG API,JSPOC,25945,GLOBALSTAR M056,PAYLOAD,U,99058C,2019-02-21T22:43:29Z,872992,12.0472533100000003,0.000100799999999999997,51.9983999999999966,29.7947999999999986,272.686300000000017,136.625699999999995,0,999,88453,-0.000815039999999999949,-1.57e-06,0,2414564,0 GLOBALSTAR M056,1 25945U 99058C   19052.94687353 -.00000157 +00000-0 -81504-3 0  9994,2 25945 051.9984 029.7948 0001008 272.6863 136.6257 12.04725331884531,1999-058C,25945,8037.90999999999985,119.528999999999996,1660.58500000000004,1658.96399999999994
1,GENERATED VIA SPACETRACK.ORG API,JSPOC,12109,COSMOS 1230,PAYLOAD,U,80102C,2019-02-21T22:43:44Z,253408,12.5787624299999994,0.0040936999999999996,73.9967000000000041,328.509299999999996,130.529300000000006,303.300400000000025,0,999,75240,0.000158039999999999998,1.10000000000000006e-07,0,2414564,0 COSMOS 1230,1 12109U 80102C   19052.94703997 +.00000011 +00000-0 +15804-3 0  9992,2 12109 073.9967 328.5093 0040937 130.5293 303.3004 12.57876243752408,1980-102C,12109,7809.85900000000038,114.477999999999994,1463.69499999999994,1399.75299999999993
1,GENERATED VIA SPACETRACK.ORG API,JSPOC,23444,COSMOS 2302,PAYLOAD,U,94086D,2019-02-21T22:43:48Z,366912,12.6120186299999997,0.000770700000000000031,82.5625,231.891600000000011,106.474699999999999,62.1103999999999985,0,999,11195,-7.03000000000000012e-05,-2.00000000000000004e-08,0,2414564,0 COSMOS 2302,1 23444U 94086D   19052.94708758 -.00000002 +00000-0 -70300-4 0  9997,2 23444 082.5625 231.8916 0007707 106.4747 062.1104 12.61201863111958,1994-086D,23444,7796.1239999999998,114.176000000000002,1423.99800000000005,1411.98099999999999
1,GENERATED VIA SPACETRACK.ORG API,JSPOC,12544,METEOSAT 2,PAYLOAD,U,81057A,2019-02-21T22:44:07Z,754208,0.987254680000000051,0.00356470000000000007,14.4334000000000007,341.357300000000009,317.644200000000012,209.424800000000005,0,999,9750,0,-1.46e-06,0,2414539,0 METEOSAT 2,1 12544U 81057A   19052.94731197 -.00000146  00000-0  00000+0 0  9996,2 12544  14.4334 341.3573 0035647 317.6442 209.4248  0.98725468 97504,1981-057A,12544,42603.8680000000022,1458.58999999999992,36377.6039999999994,36073.8629999999976
1,GENERATED VIA SPACETRACK.ORG API,JSPOC,38045,GLOBALSTAR M086,PAYLOAD,U,11080F,2019-02-21T22:44:08Z,503296,12.6226566200000008,5.84999999999999989e-05,51.9887999999999977,185.737599999999986,239.420299999999997,280.2029,0,999,33228,-4.77380000000000027e-05,-1.12000000000000008e-06,0,2414278,0 GLOBALSTAR M086,1 38045U 11080F   19052.94732064 -.00000112  00000-0 -47738-4 0  9991,2 38045  51.9888 185.7376 0000585 239.4203 280.2029 12.62265662332288,2011-080F,38045,7791.74300000000039,114.079999999999998,1414.06400000000008,1413.15200000000004
1,GENERATED VIA SPACETRACK.ORG API,JSPOC,43696,PROXIMA II,PAYLOAD,U,18088G,2019-02-21T22:44:21Z,696576,15.2116735300000006,0.00173310000000000001,85.0318999999999932,35.0745999999999967,251.395700000000005,108.540199999999999,0,999,1562,4.33689999999999976e-05,1.009e-05,0,2414564,0 PROXIMA II,1 43696U 18088G   19052.94747334 +.00001009 +00000-0 +43369-4 0  9990,2 43696 085.0319 035.0746 0017331 251.3957 108.5402 15.21167353015626,2018-088G,43696,6880.45499999999993,94.6640000000000015,514.244000000000028,490.394999999999982
1,GENERATED VIA SPACETRACK.ORG API,JSPOC,38730,TIANLIAN 1-03,PAYLOAD,U,12040A,2019-02-21T22:44:22Z,828416,1.00276422999999992,0.0003256,0.165699999999999986,270.233799999999974,138.892799999999994,100.297899999999998,0,999,2419,0,8.60000000000000025e-07,0,2414276,0 TIANLIAN 1-03,1 38730U 12040A   19052.94748644  .00000086  00000-0  00000+0 0  9994,2 38730   0.1657 270.2338 0003256 138.8928 100.2979  1.00276423 24191,2012-040A,38730,42163.4309999999969,1436.02999999999997,35799.0250000000015,35771.5679999999993
